CYGFM07                 
1 41890U 16078G   26087.28779987  .00031562  00000+0  43970-3 0  9996
2 41890  34.9463  46.4366 0005925 163.6705 196.4211 15.55879251516375
CYGFM03                 
1 41891U 16078H   26087.25883082  .00031873  00000+0  44415-3 0  9996
2 41891  34.9417  48.5963 0004811 149.9463 210.1538 15.55876999516341
FENGYUN 3D              
1 43010U 17072A   26087.52368385 -.00000005  00000+0  19383-4 0  9991
2 43010  99.0060  60.5193 0000633 318.8435  41.2692 14.19720535433542
NOAA 20 (JPSS-1)        
1 43013U 17073A   26087.50693691  .00000086  00000+0  61785-4 0  9995
2 43013  98.7713  27.7094 0001882 112.1375 248.0001 14.19540871433023
GOES 17                 
1 43226U 18022A   26087.45570574 -.00000201  00000+0  00000+0 0  9992
2 43226   0.7308  86.9431 0001542 236.1079 297.3673  1.00271192 29616
FENGYUN 2H              
1 43491U 18050A   26087.48907255 -.00000144  00000+0  00000+0 0  9996
2 43491   2.8226  80.0300 0001723 173.4156 187.5874  1.00270306 28632
METOP-C                 
1 43689U 18087A   26087.47416392  .00000104  00000+0  67537-4 0  9999
2 43689  98.6726 148.5247 0001978  74.0819 286.0576 14.21502989383363
GEO-KOMPSAT-2A          
1 43823U 18100A   26087.49886590 -.00000364  00000+0  00000+0 0  9994
2 43823   0.0536  34.7188 0001619  15.1314  83.9193  1.00270313 26827
METEOR-M2 2             
1 44387U 19038A   26087.53116414  .00000051  00000+0  41766-4 0  9998
2 44387  98.9112  73.6459 0000232 201.6906 158.4262 14.24340800349812
ARKTIKA-M 1             
1 47719U 21016A   26086.24697042 -.00000098  00000+0  00000+0 0  9990
2 47719  63.2179  69.3783 7253959 269.5617  15.0995  2.00616454 37142
FENGYUN 3E              
1 49008U 21062A   26087.51684275 -.00000046  00000+0 -85816-6 0  9998
2 49008  98.7520  91.8214 0001418   5.4752 354.6439 14.19895852245137
GOES 18                 
1 51850U 22021A   26087.51642039  .00000077  00000+0  00000+0 0  9991
2 51850   0.0465  20.5146 0000458  35.5165 178.7961  1.00272241  5784
NOAA 21 (JPSS-2)        
1 54234U 22150A   26087.47094895  .00000061  00000+0  49915-4 0  9995
2 54234  98.7575  27.5240 0002764  73.8433 286.3047 14.19556918175099
METEOSAT-12 (MTG-I1)    
1 54743U 22170C   26087.33072650 -.00000027  00000+0  00000+0 0  9992
2 54743   0.7309  25.3426 0001876 289.2592 349.8475  1.00272608 12161
TIANMU-1 03             
1 55973U 23039A   26087.53787816  .00019365  00000+0  41405-3 0  9994
2 55973  97.5196 258.5060 0003421  49.3844 310.7701 15.44863982168370
TIANMU-1 04             
1 55974U 23039B   26087.49143613  .00021921  00000+0  46140-3 0  9993
2 55974  97.5129 257.6133 0003945  41.8227 318.3322 15.45298798168372
TIANMU-1 05             
1 55975U 23039C   26087.51519935  .00018960  00000+0  40629-3 0  9996
2 55975  97.5175 258.1270 0003638  68.8532 291.3105 15.44802555168357
TIANMU-1 06             
1 55976U 23039D   26087.49092534  .00019559  00000+0  41180-3 0  9993
2 55976  97.5186 258.6596 0003833  62.1666 297.9970 15.45315168168372
FENGYUN 3G              
1 56232U 23055A   26087.36351929  .00034892  00000+0  55377-3 0  9999
2 56232  49.9933  42.7867 0004842  12.9571 347.1520 15.52966237167444
METEOR-M2 3             
1 57166U 23091A   26087.50745751  .00000015  00000+0  25349-4 0  9999
2 57166  98.6173 144.1043 0004797  56.3673 303.7963 14.24039568143039
TIANMU-1 07             
1 57399U 23101A   26087.49613200  .00008115  00000+0  28847-3 0  9994
2 57399  97.2693 140.0230 0004661  96.2288 263.9484 15.29244967149316
TIANMU-1 08             
1 57400U 23101B   26085.76300744  .00000258  00000+0  11605-4 0  9996
2 57400  97.2683 138.1078 0005815  81.6822 278.5077 15.29307245149049
TIANMU-1 09             
1 57401U 23101C   26087.51298764  .00007954  00000+0  28265-3 0  9999
2 57401  97.2640 139.2800 0005116  95.1770 265.0054 15.29262249149314
TIANMU-1 10             
1 57402U 23101D   26087.48058041  .00008078  00000+0  28642-3 0  9995
2 57402  97.2718 140.2136 0006498  84.6465 275.5517 15.29322907149300
FENGYUN 3F              
1 57490U 23111A   26087.50244411  .00000062  00000+0  49432-4 0  9990
2 57490  98.6889 158.9967 0000908  80.4175 279.7104 14.19923705137419
ARKTIKA-M 2             
1 58584U 23198A   26082.52027795  .00000173  00000+0  00000+0 0  9997
2 58584  63.2220 163.8934 6881218 267.7008  18.8555  2.00606565 16600
TIANMU-1 11             
1 58645U 23205A   26087.49430544  .00006607  00000+0  25862-3 0  9990
2 58645  97.3527 110.3411 0007155 293.9564  66.0924 15.26123853125214
TIANMU-1 12             
1 58646U 23205B   26087.52759606  .00007170  00000+0  28102-3 0  9994
2 58646  97.3515 110.1478 0005355 272.2002  87.8624 15.26058480125200
TIANMU-1 13             
1 58647U 23205C   26087.55786503  .00007052  00000+0  27604-3 0  9999
2 58647  97.3543 110.4248 0005807 247.1795 112.8830 15.26109374125209
TIANMU-1 14             
1 58648U 23205D   26087.54274318  .00007156  00000+0  28025-3 0  9998
2 58648  97.3478 109.6618 0006477 253.7340 106.3186 15.26083405125209
TIANMU-1 19             
1 58660U 23208A   26087.56518691  .00010985  00000+0  37811-3 0  9999
2 58660  97.4398 203.5793 0004138 228.8285 131.2599 15.30218177124997
TIANMU-1 20             
1 58661U 23208B   26087.46954203  .00011638  00000+0  38594-3 0  9997
2 58661  97.4338 204.0361 0006081 244.0785 115.9830 15.31402662125064
TIANMU-1 21             
1 58662U 23208C   26087.57356439  .00013346  00000+0  41438-3 0  9996
2 58662  97.4394 206.4877 0006133 237.3055 122.7597 15.33481227125206
TIANMU-1 22             
1 58663U 23208D   26087.52230733  .00010643  00000+0  37117-3 0  9996
2 58663  97.4393 203.5348 0002427 257.2433 102.8536 15.29805572124995
TIANMU-1 15             
1 58700U 24004A   26087.54036089  .00007409  00000+0  29003-3 0  9994
2 58700  97.4680 273.7578 0005634 272.6203  87.4390 15.26097857123473
TIANMU-1 16             
1 58701U 24004B   26087.52341255  .00007928  00000+0  30984-3 0  9993
2 58701  97.4623 273.0506 0004065 276.7646  83.3130 15.26135007123475
TIANMU-1 17             
1 58702U 24004C   26087.50531197  .00007467  00000+0  29170-3 0  9991
2 58702  97.4653 273.4950 0003279 278.1464  81.9403 15.26169597123463
TIANMU-1 18             
1 58703U 24004D   26087.55674191  .00007030  00000+0  27530-3 0  9993
2 58703  97.4670 273.7608 0002651 276.6238  83.4699 15.26110089123478
INSAT-3DS               
1 58990U 24033A   26087.48967923 -.00000175  00000+0  00000+0 0  9996
2 58990   0.0151 132.9542 0002060 232.2386  79.0679  1.00271573 46251
METEOR-M2 4             
1 59051U 24039A   26087.50092927  .00000034  00000+0  34697-4 0  9994
2 59051  98.6938  47.8477 0007955  49.1256 311.0610 14.22420089107793
GOES 19                 
1 60133U 24119A   26087.45856575 -.00000268  00000+0  00000+0 0  9993
2 60133   0.0464  14.7304 0000816  25.4091 235.6002  1.00270055  6154
FENGYUN 3H              
1 65815U 25219A   26087.49851942  .00000065  00000+0  50985-4 0  9990
2 65815  98.6708  29.8627 0000856  60.6195 299.5067 14.19937337 25939
OSCAR 7 (AO-7)          
1 07530U 74089B   26087.56027870 -.00000024  00000+0  14351-3 0  9994
2 07530 101.9957  99.9536 0011863 285.3194 195.1249 12.53696708350412
PHASE 3B (AO-10)        
1 14129U 83058B   26084.35916296 -.00000351  00000+0  00000+0 0  9990
2 14129  25.9114 233.6020 6040998  92.4738 333.4977  2.05874335293766
UOSAT 2 (UO-11)         
1 14781U 84021B   26087.47038243  .00001682  00000+0  17761-3 0  9991
2 14781  97.7979  53.9964 0009187  90.6259 269.6011 14.90569775245103
LUSAT (LO-19)           
1 20442U 90005G   26087.52871883  .00000164  00000+0  75114-4 0  9993
2 20442  98.8920 107.0884 0012687  83.6803 276.5825 14.34095683890836
EYESAT A (AO-27)        
1 22825U 93061C   26087.44694138  .00000114  00000+0  60518-4 0  9999
2 22825  98.6946 154.8678 0007928 345.0545  15.0402 14.30919148695455
ITAMSAT (IO-26)         
1 22826U 93061D   26087.45034470  .00000129  00000+0  65762-4 0  9990
2 22826  98.6893 154.7806 0008147 327.0091  33.0583 14.31343795695763
RADIO ROSTO (RS15)      
1 23439U 94085A   26087.49760933 -.00000055  00000+0 -36168-3 0  9999
2 23439  64.8146  73.7114 0153382  18.5285 342.1141 11.27583748286802
JAS-2 (FO-29)           
1 24278U 96046B   26087.49941207 -.00000027  00000+0  11237-4 0  9994
2 24278  98.5349 307.3721 0349074 305.9226  50.9984 13.53269893462253
TECHSAT 1B (GO-32)      
1 25397U 98043D   26087.49521919  .00000090  00000+0  59018-4 0  9998
2 25397  99.0047  78.2313 0002337  88.9707 271.1738 14.24411010439840
ISS (ZARYA)             
1 25544U 98067A   26087.48736240  .00011758  00000+0  22419-3 0  9999
2 25544  51.6344 339.4313 0006231 242.6596 117.3758 15.48607800559243
PCSAT (NO-44)           
1 26931U 01043C   26087.41712929  .00000172  00000+0  95030-4 0  9997
2 26931  67.0488  93.1758 0006897 264.7045  95.3270 14.31921117278886
SAUDISAT 1C (SO-50)     
1 27607U 02058C   26087.23158542  .00001607  00000+0  20667-3 0  9997
2 27607  64.5539  19.4240 0075445 277.2270  82.0264 14.82854107252458
CUTE-1 (CO-55)          
1 27844U 03031E   26087.53158167  .00000365  00000+0  17701-3 0  9993
2 27844  98.6773  97.0970 0010632  63.4799 296.7469 14.24281291180195
CUBESAT XI-IV (CO-57)   
1 27848U 03031J   26087.47977898  .00000303  00000+0  15237-3 0  9994
2 27848  98.6807  96.8235 0010627  79.9426 280.2951 14.23574094179895
MOZHAETS 4 (RS22)       
1 27939U 03042A   26087.53958204  .00000945  00000+0  15429-3 0  9999
2 27939  98.3459 269.6273 0011655 158.9294 293.7950 14.73303264203677
CUBESAT XI-V            
1 28895U 05043F   26087.40458060  .00002005  00000+0  32432-3 0  9997
2 28895  98.2868 241.3871 0015358 101.9650 258.3279 14.72394420 89868
CUTE-1.7+APD II (CO-65) 
1 32785U 08021C   26087.48561212  .00007658  00000+0  49314-3 0  9997
2 32785  97.8225  67.3008 0007685 311.7611  48.2959 15.08623616973026
